line1,line2,validFromUtcTime
1 00000U 00000E   26001.00000000  .00000000  00000-0  27772-4 0    01,2 00000  88.8547  90.3332 0010116 270.2173  29.7847 13.55287196    07,2026-01-01T00:00:00Z
1 00000U 00000E   26002.00000000  .00000000  00000-0  27772-4 0    02,2 00000  88.8547  90.2167 0010116 267.3077 228.8171 13.55287234    07,2026-01-02T00:00:00Z
